{"type": "FeatureCollection", "features": [ {"type": "Feature", "properties": {"norad_id": 34909, "name": "COSMOS 2251 DEB", "group": "cosmos-2251-debris", "lat": 72.01127052775979, "lon": -161.25123990205245, "alt_km": 657.1251392843578, "timestamp": "2025-12-10T14:53:37.483305+00:00", "meta": {"OBJECT_NAME": "COSMOS 2251 DEB", "OBJECT_ID": "1993-036ADE", "EPOCH": "2025-12-10T06:19:13.509984", "MEAN_MOTION": 14.77798504, "ECCENTRICITY": 0.00847099, "INCLINATION": 74.0144, "RA_OF_ASC_NODE": 81.4397, "ARG_OF_PERICENTER": 217.8186, "MEAN_ANOMALY": 141.702, "EPHEMERIS_TYPE": 0, "CLASSIFICATION_TYPE": "U", "NORAD_CAT_ID": 34909, "ELEMENT_SET_NO": 999, "REV_AT_EPOCH": 66815, "BSTAR": 0.00097681818, "MEAN_MOTION_DOT": 7.419e-05, "MEAN_MOTION_DDOT": 0}, "tle": {"line1": "1 34909U 93036ADE 25344.26335081  .00007419  00000+0  97682-3 0  9997", "line2": "2 34909  74.0144  81.4397 0084709 217.8186 141.7020 14.77798504668153"}}, "geometry": {"type": "Point", "coordinates": [-161.25123990205245, 72.01127052775979]}}, {"type": "Feature", "properties": {"norad_id": 34910, "name": "COSMOS 2251 DEB", "group": "cosmos-2251-debris", "lat": 42.192943191896504, "lon": 119.97446584723154, "alt_km": 1464.8300915903174, "timestamp": "2025-12-10T14:53:37.483314+00:00", "meta": {"OBJECT_NAME": "COSMOS 2251 DEB", "OBJECT_ID": "1993-036ADF", "EPOCH": "2025-12-04T03:27:09.174816", "MEAN_MOTION": 13.3765034, "ECCENTRICITY": 0.04679235, "INCLINATION": 73.8763, "RA_OF_ASC_NODE": 114.9889, "ARG_OF_PERICENTER": 235.2756, "MEAN_ANOMALY": 311.3517, "EPHEMERIS_TYPE": 0, "CLASSIFICATION_TYPE": "U", "NORAD_CAT_ID": 34910, "ELEMENT_SET_NO": 999, "REV_AT_EPOCH": 81409, "BSTAR": 0.0018660381, "MEAN_MOTION_DOT": 1.821e-05, "MEAN_MOTION_DDOT": 0}, "tle": {"line1": "1 34910U 93036ADF 25338.14385619  .00001821  00000+0  18660-2 0  9990", "line2": "2 34910  73.8763 114.9889 0467923 235.2756 311.3517 13.37650340814099"}}, "geometry": {"type": "Point", "coordinates": [119.97446584723154, 42.192943191896504]}}, {"type": "Feature", "properties": {"norad_id": 34911, "name": "COSMOS 2251 DEB", "group": "cosmos-2251-debris", "lat": -24.046530908016297, "lon": -118.55226230640592, "alt_km": 654.7658352410572, "timestamp": "2025-12-10T14:53:37.483323+00:00", "meta": {"OBJECT_NAME": "COSMOS 2251 DEB", "OBJECT_ID": "1993-036ADG", "EPOCH": "2025-12-09T11:50:36.728160", "MEAN_MOTION": 14.59364139, "ECCENTRICITY": 0.00834555, "INCLINATION": 74.0415, "RA_OF_ASC_NODE": 250.9305, "ARG_OF_PERICENTER": 17.1677, "MEAN_ANOMALY": 159.4854, "EPHEMERIS_TYPE": 0, "CLASSIFICATION_TYPE": "U", "NORAD_CAT_ID": 34911, "ELEMENT_SET_NO": 999, "REV_AT_EPOCH": 88539, "BSTAR": 0.00030402395, "MEAN_MOTION_DOT": 1.479e-05, "MEAN_MOTION_DDOT": 0}, "tle": {"line1": "1 34911U 93036ADG 25343.49348065  .00001479  00000+0  30402-3 0  9997", "line2": "2 34911  74.0415 250.9305 0083455  17.1677 159.4854 14.59364139885393"}}, "geometry": {"type": "Point", "coordinates": [-118.55226230640592, -24.046530908016297]}}, {"type": "Feature", "properties": {"norad_id": 34913, "name": "COSMOS 2251 DEB", "group": "cosmos-2251-debris", "lat": 12.080105505886559, "lon": 102.86804321917155, "alt_km": 786.5011536828633, "timestamp": "2025-12-10T14:53:37.483332+00:00", "meta": {"OBJECT_NAME": "COSMOS 2251 DEB", "OBJECT_ID": "1993-036ADJ", "EPOCH": "2025-12-09T03:03:43.509888", "MEAN_MOTION": 14.34635486, "ECCENTRICITY": 0.00202101, "INCLINATION": 74.0282, "RA_OF_ASC_NODE": 289.1171, "ARG_OF_PERICENTER": 40.2127, "MEAN_ANOMALY": 339.2145, "EPHEMERIS_TYPE": 0, "CLASSIFICATION_TYPE": "U", "NORAD_CAT_ID": 34913, "ELEMENT_SET_NO": 999, "REV_AT_EPOCH": 65136, "BSTAR": 8.6960494e-05, "MEAN_MOTION_DOT": 2.2e-06, "MEAN_MOTION_DDOT": 0}, "tle": {"line1": "1 34913U 93036ADJ 25343.12758692  .00000220  00000+0  86960-4 0  9994", "line2": "2 34913  74.0282 289.1171 0020210  40.2127 339.2145 14.34635486651367"}}, "geometry": {"type": "Point", "coordinates": [102.86804321917155, 12.080105505886559]}}, {"type": "Feature", "properties": {"norad_id": 34918, "name": "COSMOS 2251 DEB", "group": "cosmos-2251-debris", "lat": 63.59049757742768, "lon": 102.5645159608138, "alt_km": 706.8183255410904, "timestamp": "2025-12-10T14:53:37.483341+00:00", "meta": {"OBJECT_NAME": "COSMOS 2251 DEB", "OBJECT_ID": "1993-036ADP", "EPOCH": "2025-12-10T06:27:09.237024", "MEAN_MOTION": 14.61118971, "ECCENTRICITY": 0.00338982, "INCLINATION": 74.0712, "RA_OF_ASC_NODE": 318.3402, "ARG_OF_PERICENTER": 286.4186, "MEAN_ANOMALY": 135.6409, "EPHEMERIS_TYPE": 0, "CLASSIFICATION_TYPE": "U", "NORAD_CAT_ID": 34918, "ELEMENT_SET_NO": 999, "REV_AT_EPOCH": 65300, "BSTAR": 0.0032517225, "MEAN_MOTION_DOT": 0.00016131, "MEAN_MOTION_DDOT": 0}, "tle": {"line1": "1 34918U 93036ADP 25344.26885691  .00016131  00000+0  32517-2 0  9990", "line2": "2 34918  74.0712 318.3402 0033898 286.4186 135.6409 14.61118971653006"}}, "geometry": {"type": "Point", "coordinates": [102.5645159608138, 63.59049757742768]}}, {"type": "Feature", "properties": {"norad_id": 34924, "name": "COSMOS 2251 DEB", "group": "cosmos-2251-debris", "lat": 60.05941364279209, "lon": -116.29921267528495, "alt_km": 669.2935274296378, "timestamp": "2025-12-10T14:53:37.483351+00:00", "meta": {"OBJECT_NAME": "COSMOS 2251 DEB", "OBJECT_ID": "1993-036ADV", "EPOCH": "2025-12-09T17:40:35.016960", "MEAN_MOTION": 14.59983788, "ECCENTRICITY": 0.00546463, "INCLINATION": 74.0408, "RA_OF_ASC_NODE": 95.1777, "ARG_OF_PERICENTER": 180.5365, "MEAN_ANOMALY": 330.9802, "EPHEMERIS_TYPE": 0, "CLASSIFICATION_TYPE": "U", "NORAD_CAT_ID": 34924, "ELEMENT_SET_NO": 999, "REV_AT_EPOCH": 87679, "BSTAR": 0.0017478833, "MEAN_MOTION_DOT": 8.543e-05, "MEAN_MOTION_DDOT": 0}, "tle": {"line1": "1 34924U 93036ADV 25343.73651640  .00008543  00000+0  17479-2 0  9991", "line2": "2 34924  74.0408  95.1777 0054646 180.5365 330.9802 14.59983788876790"}}, "geometry": {"type": "Point", "coordinates": [-116.29921267528495, 60.05941364279209]}}, {"type": "Feature", "properties": {"norad_id": 34944, "name": "COSMOS 2251 DEB", "group": "cosmos-2251-debris", "lat": -31.441096742785657, "lon": 66.13514184353883, "alt_km": 948.1894142082565, "timestamp": "2025-12-10T14:53:37.483360+00:00", "meta": {"OBJECT_NAME": "COSMOS 2251 DEB", "OBJECT_ID": "1993-036ADX", "EPOCH": "2025-12-07T09:30:46.029312", "MEAN_MOTION": 14.14167925, "ECCENTRICITY": 0.02195348, "INCLINATION": 73.7495, "RA_OF_ASC_NODE": 241.6775, "ARG_OF_PERICENTER": 90.2413, "MEAN_ANOMALY": 272.3884, "EPHEMERIS_TYPE": 0, "CLASSIFICATION_TYPE": "U", "NORAD_CAT_ID": 34944, "ELEMENT_SET_NO": 999, "REV_AT_EPOCH": 64007, "BSTAR": 0.00099492053, "MEAN_MOTION_DOT": 2.364e-05, "MEAN_MOTION_DDOT": 0}, "tle": {"line1": "1 34944U 93036ADX 25341.39636608  .00002364  00000+0  99492-3 0  9991", "line2": "2 34944  73.7495 241.6775 0219534  90.2413 272.3884 14.14167925640077"}}, "geometry": {"type": "Point", "coordinates": [66.13514184353883, -31.441096742785657]}}, {"type": "Feature", "properties": {"norad_id": 34946, "name": "COSMOS 2251 DEB", "group": "cosmos-2251-debris", "lat": -51.37010599553471, "lon": -34.83339842987977, "alt_km": 727.8018282210569, "timestamp": "2025-12-10T14:53:37.483369+00:00", "meta": {"OBJECT_NAME": "COSMOS 2251 DEB", "OBJECT_ID": "1993-036ADZ", "EPOCH": "2025-12-09T17:47:38.816736", "MEAN_MOTION": 14.6197132, "ECCENTRICITY": 0.00487389, "INCLINATION": 74.0236, "RA_OF_ASC_NODE": 347.8579, "ARG_OF_PERICENTER": 126.0022, "MEAN_ANOMALY": 234.5678, "EPHEMERIS_TYPE": 0, "CLASSIFICATION_TYPE": "U", "NORAD_CAT_ID": 34946, "ELEMENT_SET_NO": 999, "REV_AT_EPOCH": 88165, "BSTAR": 0.00088969949, "MEAN_MOTION_DOT": 4.507e-05, "MEAN_MOTION_DDOT": 0}, "tle": {"line1": "1 34946U 93036ADZ 25343.74142149  .00004507  00000+0  88970-3 0  9996", "line2": "2 34946  74.0236 347.8579 0048738 126.0022 234.5678 14.61971320881653"}}, "geometry": {"type": "Point", "coordinates": [-34.83339842987977, -51.37010599553471]}}, {"type": "Feature", "properties": {"norad_id": 34949, "name": "COSMOS 2251 DEB", "group": "cosmos-2251-debris", "lat": 63.355160665304865, "lon": -101.03649465773198, "alt_km": 689.6385725345726, "timestamp": "2025-12-10T14:53:37.483378+00:00", "meta": {"OBJECT_NAME": "COSMOS 2251 DEB", "OBJECT_ID": "1993-036AEC", "EPOCH": "2025-12-09T15:34:41.030400", "MEAN_MOTION": 14.73963573, "ECCENTRICITY": 0.008042, "INCLINATION": 74.0182, "RA_OF_ASC_NODE": 115.6941, "ARG_OF_PERICENTER": 261.6413, "MEAN_ANOMALY": 97.5637, "EPHEMERIS_TYPE": 0, "CLASSIFICATION_TYPE": "U", "NORAD_CAT_ID": 34949, "ELEMENT_SET_NO": 999, "REV_AT_EPOCH": 88316, "BSTAR": 0.00087029, "MEAN_MOTION_DOT": 5.989e-05, "MEAN_MOTION_DDOT": 0}, "tle": {"line1": "1 34949U 93036AEC 25343.64908600  .00005989  00000+0  87029-3 0  9999", "line2": "2 34949  74.0182 115.6941 0080420 261.6413  97.5637 14.73963573883168"}}, "geometry": {"type": "Point", "coordinates": [-101.03649465773198, 63.355160665304865]}}, {"type": "Feature", "properties": {"norad_id": 34953, "name": "COSMOS 2251 DEB", "group": "cosmos-2251-debris", "lat": 50.62588743551483, "lon": -168.75672740427675, "alt_km": 667.8624375355621, "timestamp": "2025-12-10T14:53:37.483387+00:00", "meta": {"OBJECT_NAME": "COSMOS 2251 DEB", "OBJECT_ID": "1993-036AEG", "EPOCH": "2025-12-10T04:46:25.131936", "MEAN_MOTION": 14.68922065, "ECCENTRICITY": 0.00578967, "INCLINATION": 74.0931, "RA_OF_ASC_NODE": 32.3908, "ARG_OF_PERICENTER": 25.207, "MEAN_ANOMALY": 31.6602, "EPHEMERIS_TYPE": 0, "CLASSIFICATION_TYPE": "U", "NORAD_CAT_ID": 34953, "ELEMENT_SET_NO": 999, "REV_AT_EPOCH": 88091, "BSTAR": 0.0011483895, "MEAN_MOTION_DOT": 6.869e-05, "MEAN_MOTION_DDOT": 0}, "tle": {"line1": "1 34953U 93036AEG 25344.19890199  .00006869  00000+0  11484-2 0  9997", "line2": "2 34953  74.0931  32.3908 0057896  25.2070  31.6602 14.68922065880913"}}, "geometry": {"type": "Point", "coordinates": [-168.75672740427675, 50.62588743551483]}}]}